STARLINK-2408
1 27823C 21018AN  21325.15224987  .00003138  00000-0  21028-3 0  3251
2 27823  53.0545  97.5482 0001419  71.9292 217.9485 15.06391758    10
